STARLINK-34679          
1 65442U 25194J   26169.12920504  .00007904  00000+0  55079-3 0  9997
2 65442  97.3513  22.4109 0002817  76.2188 283.9353 15.05672052 44766
STARLINK-34678          
1 65443U 25194K   26169.09595575  .00001923  00000+0  13713-3 0  9994
2 65443  97.3505  22.3015 0002780 133.7026 226.4432 15.05660694 44750
STARLINK-35049          
1 65444U 25194L   26169.08211645  .00001591  00000+0  11415-3 0  9995
2 65444  97.3478  22.3175 0002086  79.2254 280.9208 15.05664466 44750
STARLINK-35029          
1 65445U 25194M   26169.07658064  .00002592  00000+0  18347-3 0  9998
2 65445  97.3503  22.3300 0002019  74.1477 285.9973 15.05662308 44754
STARLINK-34991          
1 65446U 25194N   26169.13473634  .00002104  00000+0  14975-3 0  9996
2 65446  97.3478  22.4017 0002308  91.0243 269.1249 15.05655074 44765
STARLINK-34920          
1 65447U 25194P   26169.12366268  .00002448  00000+0  17349-3 0  9999
2 65447  97.3469  22.4161 0002655  88.7398 271.4134 15.05666771 44760
STARLINK-35030          
1 65448U 25194Q   26169.08765477  .00004500  00000+0  31556-3 0  9997
2 65448  97.3493  22.3107 0002208 105.7582 254.3890 15.05659939 44752
STARLINK-35009          
1 65449U 25194R   26169.11535747  .00002747  00000+0  19421-3 0  9995
2 65449  97.3478  22.4281 0002471  81.4941 278.6567 15.05655906 44762
STARLINK-34970          
1 65450U 25194S   26169.10980495  .00003147  00000+0  22189-3 0  9990
2 65450  97.3465  22.2812 0002839  94.1924 265.9628 15.05660954 44753
STARLINK-35039          
1 65451U 25194T   26169.27872660  .00001153  00000+0  83838-4 0  9997
2 65451  97.3478  22.5133 0002475  66.0063 294.1423 15.05659953 44782
STARLINK-35084          
1 65452U 25194U   26169.09319269  .00001042  00000+0  76164-4 0  9990
2 65452  97.3486  22.3033 0001981 100.5038 259.6413 15.05658601 44757
STARLINK-34988          
1 65453U 25194V   26169.10717710  .00002833  00000+0  20467-3 0  9999
2 65453  97.4629  23.5125 0002390  79.1415 281.0081 15.04843193 44805
STARLINK-35059          
1 65454U 25194W   26169.11072170  .00007448  00000+0  53122-3 0  9996
2 65454  97.4633  23.0363 0002563  77.9830 282.1684 15.04828244 44776
STARLINK-34728          
1 65455U 25194X   26169.17072492  .00003407  00000+0  23989-3 0  9999
2 65455  97.3479  22.3523 0002219  91.6197 268.5285 15.05661468 44769
STARLINK-35005          
1 65456U 25194Y   26169.11812027  .00003865  00000+0  27152-3 0  9994
2 65456  97.3444  22.4228 0002712  78.8983 281.2549 15.05669922 44761
STARLINK-35076          
1 65457U 25194Z   26169.09872805  .00002467  00000+0  17481-3 0  9993
2 65457  97.3472  22.2962 0002004 101.1919 258.9534 15.05662754 44759
STARLINK-34784          
1 65458U 25195A   26168.94916129  .00009008  00000+0  30160-3 0  9993
2 65458  53.1597 151.8004 0000596  43.6386 316.4663 15.31710029 45354
STARLINK-34867          
1 65459U 25195B   26169.12350363  .00022238  00000+0  66707-3 0  9993
2 65459  53.1575 150.7563 0001150  83.8486 276.2647 15.34412901 45382
STARLINK-34850          
1 65460U 25195C   26169.11929312  .00025452  00000+0  76202-3 0  9992
2 65460  53.1578 150.7240 0001343 141.1298 218.9801 15.34393328 45388
STARLINK-35159          
1 65461U 25195D   26168.94492846  .00032548  00000+0  96937-3 0  9991
2 65461  53.1593 151.7727 0001869  98.8093 261.3121 15.34428673 45357
STARLINK-35180          
1 65462U 25195E   26169.12560003  .00016444  00000+0  49654-3 0  9995
2 65462  53.1594 150.7659 0001132  96.9260 263.1871 15.34412315 45381
STARLINK-35111          
1 65463U 25195F   26169.09834870  .00036135  00000+0  11705-2 0  9992
2 65463  53.1575 151.3017 0001257  84.3866 275.7279 15.31702500 45372
STARLINK-35107          
1 65464U 25195G   26169.12624188  .00013512  00000+0  44612-3 0  9994
2 65464  53.1580 150.7696 0001360  83.9455 276.1701 15.31718527 45381
STARLINK-35169          
1 65465U 25195H   26168.95754937  .00018613  00000+0  56041-3 0  9997
2 65465  53.1594 151.8484 0000502  48.4888 311.6158 15.34412591 45350
STARLINK-35027          
1 65466U 25195J   26169.13823267  .00018669  00000+0  56223-3 0  9995
2 65466  53.1602 150.8411 0001491  80.5777 279.5394 15.34403345 45386
STARLINK-34816          
1 65467U 25195K   26169.10808912  .00008665  00000+0  30432-3 0  9992
2 65467  53.1566 152.0669 0001136 104.9825 255.1301 15.30203458 45361
STARLINK-35033          
1 65468U 25195L   26169.13091775  .00012547  00000+0  41519-3 0  9999
2 65468  53.1589 150.7922 0001721  88.0689 272.0510 15.31716552 45381
STARLINK-34924          
1 65469U 25195M   26169.12139777  .00019832  00000+0  59629-3 0  9999
2 65469  53.1579 150.7401 0001179  65.6350 294.4775 15.34412805 45384
STARLINK-34829          
1 65470U 25195N   26168.95382953  .00019086  00000+0  62491-3 0  9999
2 65470  53.1598 151.8210 0001229  97.6357 262.4784 15.31715598 45359
STARLINK-34888          
1 65471U 25195P   26168.23895111  .00020205  00000+0  60750-3 0  9997
2 65471  53.1593 155.1816 0001023  60.6071 299.5033 15.34400683 45244
