OBJECT_NAME,OBJECT_ID,EPOCH,MEAN_MOTION,ECCENTRICITY,INCLINATION,RA_OF_ASC_NODE,ARG_OF_PERICENTER,MEAN_ANOMALY,EPHEMERIS_TYPE,CLASSIFICATION_TYPE,NORAD_CAT_ID,ELEMENT_SET_NO,REV_AT_EPOCH,BSTAR,MEAN_MOTION_DOT,MEAN_MOTION_DDOT
STARLINK-34679,2025-194J,2026-06-18T03:06:03.315456,15.05672052,.00028176,97.3513,22.4109,76.2188,283.9353,0,U,65442,999,4476,.55079444E-3,.7904E-4,0
STARLINK-34678,2025-194K,2026-06-18T02:18:10.576800,15.05660694,.00027806,97.3505,22.3015,133.7026,226.4432,0,U,65443,999,4475,.1371322E-3,.1923E-4,0
STARLINK-35049,2025-194L,2026-06-18T01:58:14.861280,15.05664466,.0002086,97.3478,22.3175,79.2254,280.9208,0,U,65444,999,4475,.11415201E-3,.1591E-4,0
STARLINK-35029,2025-194M,2026-06-18T01:50:16.567296,15.05662308,.00020197,97.3503,22.3300,74.1477,285.9973,0,U,65445,999,4475,.1834697E-3,.2592E-4,0
STARLINK-34991,2025-194N,2026-06-18T03:14:01.219776,15.05655074,.00023087,97.3478,22.4017,91.0243,269.1249,0,U,65446,999,4476,.14975027E-3,.2104E-4,0
STARLINK-34920,2025-194P,2026-06-18T02:58:04.455552,15.05666771,.00026558,97.3469,22.4161,88.7398,271.4134,0,U,65447,999,4476,.17348875E-3,.2448E-4,0
STARLINK-35030,2025-194Q,2026-06-18T02:06:13.372128,15.05659939,.00022087,97.3493,22.3107,105.7582,254.3890,0,U,65448,999,4475,.3155632E-3,.45E-4,0
STARLINK-35009,2025-194R,2026-06-18T02:46:06.885408,15.05655906,.00024716,97.3478,22.4281,81.4941,278.6567,0,U,65449,999,4476,.19420848E-3,.2747E-4,0
STARLINK-34970,2025-194S,2026-06-18T02:38:07.147680,15.05660954,.00028399,97.3465,22.2812,94.1924,265.9628,0,U,65450,999,4475,.22188991E-3,.3147E-4,0
STARLINK-35039,2025-194T,2026-06-18T06:41:21.978240,15.05659953,.00024755,97.3478,22.5133,66.0063,294.1423,0,U,65451,999,4478,.83837945E-4,.1153E-4,0
STARLINK-35084,2025-194U,2026-06-18T02:14:11.848416,15.05658601,.00019814,97.3486,22.3033,100.5038,259.6413,0,U,65452,999,4475,.76163924E-4,.1042E-4,0
STARLINK-34988,2025-194V,2026-06-18T02:34:20.101440,15.04843193,.00023908,97.4629,23.5125,79.1415,281.0081,0,U,65453,999,4480,.2046675E-3,.2833E-4,0
STARLINK-35059,2025-194W,2026-06-18T02:39:26.354880,15.04828244,.0002563,97.4633,23.0363,77.9830,282.1684,0,U,65454,999,4477,.53122267E-3,.7448E-4,0
STARLINK-34728,2025-194X,2026-06-18T04:05:50.633088,15.05661468,.00022195,97.3479,22.3523,91.6197,268.5285,0,U,65455,999,4476,.23988698E-3,.3407E-4,0
STARLINK-35005,2025-194Y,2026-06-18T02:50:05.591328,15.05669922,.00027128,97.3444,22.4228,78.8983,281.2549,0,U,65456,999,4476,.27151984E-3,.3865E-4,0
STARLINK-35076,2025-194Z,2026-06-18T02:22:10.103520,15.05662754,.00020047,97.3472,22.2962,101.1919,258.9534,0,U,65457,999,4475,.17481119E-3,.2467E-4,0
STARLINK-34784,2025-195A,2026-06-17T22:46:47.535456,15.31710029,.00005962,53.1597,151.8004,43.6386,316.4663,0,U,65458,999,4535,.30159916E-3,.9008E-4,0
STARLINK-34867,2025-195B,2026-06-18T02:57:50.713632,15.34412901,.000115,53.1575,150.7563,83.8486,276.2647,0,U,65459,999,4538,.66707021E-3,.22238E-3,0
STARLINK-34850,2025-195C,2026-06-18T02:51:46.925568,15.34393328,.00013438,53.1578,150.7240,141.1298,218.9801,0,U,65460,999,4538,.7620216E-3,.25452E-3,0
STARLINK-35159,2025-195D,2026-06-17T22:40:41.818944,15.34428673,.00018693,53.1593,151.7727,98.8093,261.3121,0,U,65461,999,4535,.96937395E-3,.32548E-3,0
STARLINK-35180,2025-195E,2026-06-18T03:00:51.842592,15.34412315,.00011325,53.1594,150.7659,96.9260,263.1871,0,U,65462,999,4538,.49654448E-3,.16444E-3,0
STARLINK-35111,2025-195F,2026-06-18T02:21:37.327680,15.31702500,.00012574,53.1575,151.3017,84.3866,275.7279,0,U,65463,999,4537,.11704763E-2,.36135E-3,0
STARLINK-35107,2025-195G,2026-06-18T03:01:47.298432,15.31718527,.000136,53.1580,150.7696,83.9455,276.1701,0,U,65464,999,4538,.44611891E-3,.13512E-3,0
STARLINK-35169,2025-195H,2026-06-17T22:58:52.265568,15.34412591,.00005024,53.1594,151.8484,48.4888,311.6158,0,U,65465,999,4535,.56041306E-3,.18613E-3,0
STARLINK-35027,2025-195J,2026-06-18T03:19:03.302688,15.34403345,.00014917,53.1602,150.8411,80.5777,279.5394,0,U,65466,999,4538,.56222837E-3,.18669E-3,0
STARLINK-34816,2025-195K,2026-06-18T02:35:38.899968,15.30203458,.00011368,53.1566,152.0669,104.9825,255.1301,0,U,65467,999,4536,.30431642E-3,.8665E-4,0
STARLINK-35033,2025-195L,2026-06-18T03:08:31.293600,15.31716552,.00017217,53.1589,150.7922,88.0689,272.0510,0,U,65468,999,4538,.41518748E-3,.12547E-3,0
STARLINK-34924,2025-195M,2026-06-18T02:54:48.767328,15.34412805,.00011792,53.1579,150.7401,65.6350,294.4775,0,U,65469,999,4538,.59629181E-3,.19832E-3,0
STARLINK-34829,2025-195N,2026-06-17T22:53:30.871392,15.31715598,.00012291,53.1598,151.8210,97.6357,262.4784,0,U,65470,999,4535,.62491397E-3,.19086E-3,0
STARLINK-34888,2025-195P,2026-06-17T05:44:05.375904,15.34400683,.00010234,53.1593,155.1816,60.6071,299.5033,0,U,65471,999,4524,.60750024E-3,.20205E-3,0
